DMSP 5D-3 F16 (USA 172) 
1 28054U 03048A   26079.95626543  .00000118  00000+0  85220-4 0  9998
2 28054  98.9981 103.1682 0007759  44.2974  19.2277 14.14466291157014
METEOSAT-9 (MSG-2)      
1 28912U 05049B   26079.49619696  .00000131  00000+0  00000+0 0  9997
2 28912   9.1606  55.0194 0000299 148.9044 198.4206  1.00269876  6106
DMSP 5D-3 F17 (USA 191) 
1 29522U 06050A   26079.92131237  .00000132  00000+0  90526-4 0  9994
2 29522  98.7413  88.2885 0009195 312.9229  47.1172 14.14968830999930
FENGYUN 3A              
1 32958U 08026A   26079.80131643  .00000085  00000+0  60765-4 0  9993
2 32958  98.6812  22.3237 0009290  29.0922 331.0770 14.19549544922860
GOES 14                 
1 35491U 09033A   26079.81033240  .00000098  00000+0  00000+0 0  9997
2 35491   1.4604  84.1505 0001653 269.6273 308.1409  1.00105301  5700
DMSP 5D-3 F18 (USA 210) 
1 35951U 09057A   26079.95668019  .00000252  00000+0  15375-3 0  9994
2 35951  98.8981  60.9496 0011725 137.2925 222.9161 14.14843069847111
EWS-G2 (GOES 15)        
1 36411U 10008A   26079.92750620  .00000025  00000+0  00000+0 0  9994
2 36411   1.0468  84.7109 0002459  18.9794 112.0146  1.00269804 58753
COMS 1                  
1 36744U 10032A   26079.86900597 -.00000339  00000+0  00000+0 0  9992
2 36744   4.5759  76.6050 0000773 281.8002 260.9863  1.00272032 50206
FENGYUN 3B              
1 37214U 10059A   26079.97696341  .00000218  00000+0  13584-3 0  9995
2 37214  98.9740 125.5735 0023098  77.5603 350.7319 14.14820756794954
SUOMI NPP               
1 37849U 11061A   26079.87989615  .00000101  00000+0  68824-4 0  9990
2 37849  98.7883  21.3945 0001230 180.3715 179.7460 14.19496248745919
METEOSAT-10 (MSG-3)     
1 38552U 12035B   26079.77233454 -.00000002  00000+0  00000+0 0  9994
2 38552   4.4615  61.3813 0002337 281.3683 113.6817  1.00269687 49978
METOP-B                 
1 38771U 12049A   26079.91869527  .00000078  00000+0  55621-4 0  9990
2 38771  98.6618 133.1365 0001604 212.2333 147.8746 14.21448157700725
INSAT-3D                
1 39216U 13038B   26079.86926597 -.00000335  00000+0  00000+0 0  9992
2 39216   1.6965  83.6736 0001619 239.3974 297.8265  1.00272587 46198
FENGYUN 3C              
1 39260U 13052A   26079.91312426  .00000075  00000+0  59226-4 0  9992
2 39260  98.4909  57.8783 0013506 278.5430  81.4214 14.15732422646077
METEOR-M 2              
1 40069U 14037A   26079.94601657 -.00000222  00000+0 -82141-4 0  9993
2 40069  98.5042  58.8459 0004782 301.0223  59.0485 14.21432100606786
HIMAWARI-8              
1 40267U 14060A   26079.87151932 -.00000273  00000+0  00000+0 0  9991
2 40267   0.0190 189.6101 0000643 125.1047 318.0818  1.00270537 41874
FENGYUN 2G              
1 40367U 14090A   26079.93469957 -.00000296  00000+0  00000+0 0  9996
2 40367   5.4139  73.8766 0001745 142.4351  38.2776  1.00267230 41119
METEOSAT-11 (MSG-4)     
1 40732U 15034A   26079.91675949  .00000065  00000+0  00000+0 0  9992
2 40732   2.9799  71.5830 0001829 280.8177 165.2724  1.00271327  6333
ELEKTRO-L 2             
1 41105U 15074A   26079.76947453 -.00000111  00000+0  00000+0 0  9999
2 41105   6.4702  71.6027 0002758 245.4230 123.7857  1.00272469 37629
INSAT-3DR               
1 41752U 16054A   26079.90441778 -.00000074  00000+0  00000+0 0  9999
2 41752   0.0897  89.3332 0012890 192.7662 295.9021  1.00271169 34930
HIMAWARI-9              
1 41836U 16064A   26079.94285404 -.00000272  00000+0  00000+0 0  9999
2 41836   0.0189 149.2422 0000920 230.5599 278.8771  1.00271274 34326
GOES 16                 
1 41866U 16071A   26079.89422608 -.00000088  00000+0  00000+0 0  9998
2 41866   0.1379  86.1242 0002238 227.8692  81.6513  1.00271347 34210
FENGYUN 4A              
1 41882U 16077A   26079.93946626 -.00000353  00000+0  00000+0 0  9993
2 41882   2.0963  81.1896 0007384 133.8517  65.3949  1.00270603 34044
CYGFM05                 
1 41884U 16078A   26079.50366434  .00018699  00000+0  29381-3 0  9990
2 41884  34.9571 126.1273 0005831  26.3002 333.8017 15.52672546514949
CYGFM04                 
1 41885U 16078B   26079.46436757  .00025216  00000+0  34760-3 0  9992
2 41885  34.9324  98.0618 0004467  72.1815 287.9396 15.56204957515144
CYGFM02                 
1 41886U 16078C   26079.73362489  .00033675  00000+0  42356-3 0  9991
2 41886  34.9412  92.9283 0005448  78.4425 281.6912 15.58597538515338
CYGFM01                 
1 41887U 16078D   26079.52755303  .00024007  00000+0  36919-3 0  9997
2 41887  34.9402 127.6899 0005621  17.4756 342.6160 15.53229970514890
CYGFM08                 
1 41888U 16078E   26079.49439050  .00023728  00000+0  34106-3 0  9997
2 41888  34.9429 109.5613 0006722  51.1260 309.0062 15.55070181515137
CYGFM07                 
1 41890U 16078G   26079.45870448  .00023441  00000+0  33301-3 0  9994
2 41890  34.9448  98.2086 0004994  74.5379 285.5896 15.55399902515158
CYGFM03                 
1 41891U 16078H   26079.42972238  .00022759  00000+0  32340-3 0  9995
2 41891  34.9404 100.3711 0004269  55.4871 304.6256 15.55400949515125
FENGYUN 3D              
1 43010U 17072A   26079.91229905 -.00000076  00000+0 -14001-4 0  9990
2 43010  99.0048  52.7782 0000999 345.4899  14.6247 14.19717487432462
NOAA 20 (JPSS-1)        
1 43013U 17073A   26079.89455731  .00000063  00000+0  50814-4 0  9995
2 43013  98.7706  20.1711 0001641 123.2740 236.8594 14.19538853431948
GOES 17                 
1 43226U 18022A   26079.89725942 -.00000180  00000+0  00000+0 0  9998
2 43226   0.7095  87.1328 0001658 229.8983  94.9028  1.00271267 29537
FENGYUN 2H              
1 43491U 18050A   26079.94942934 -.00000123  00000+0  00000+0 0  9998
2 43491   2.8010  80.1427 0001544 168.6218 350.5975  1.00271220 28551
METOP-C                 
1 43689U 18087A   26079.87227209  .00000097  00000+0  64244-4 0  9994
2 43689  98.6742 141.0542 0002128  84.4282 275.7138 14.21500447382280
GEO-KOMPSAT-2A          
1 43823U 18100A   26079.79776567 -.00000341  00000+0  00000+0 0  9995
2 43823   0.0481  10.2377 0001309  32.1040 191.4170  1.00274011 26746
METEOR-M2 2             
1 44387U 19038A   26079.94443753 -.00000029  00000+0  72806-5 0  9999
2 44387  98.9099  65.9519 0000276 317.6353  42.4804 14.24337735348736
ARKTIKA-M 1             
1 47719U 21016A   26078.27172550 -.00000051  00000+0  00000+0 0  9995
2 47719  63.2131  70.5059 7250064 269.5381  15.1604  2.00617949 36981
FENGYUN 3E              
1 49008U 21062A   26079.97683662 -.00000020  00000+0  11417-4 0  9993
2 49008  98.7511  84.3641 0001740  20.7751 339.3495 14.19895515244064
GOES 18                 
1 51850U 22021A   26079.74520777  .00000099  00000+0  00000+0 0  9995
2 51850   0.0448  25.4551 0000541  27.7315 256.3614  1.00273215  5704
NOAA 21 (JPSS-2)        
1 54234U 22150A   26079.92913934  .00000065  00000+0  51856-4 0  9991
2 54234  98.7568  20.0670 0002773  86.6428 273.5065 14.19554923174026
METEOSAT-12 (MTG-I1)    
1 54743U 22170C   26079.90669568 -.00000005  00000+0  00000+0 0  9992
2 54743   0.7207  24.0102 0001863 286.9548 193.5142  1.00271144 12097
TIANMU-1 03             
1 55973U 23039A   26079.89400735  .00015834  00000+0  34236-3 0  9997
2 55973  97.5188 250.5958 0003814  70.6818 289.4842 15.44575211167195
TIANMU-1 04             
1 55974U 23039B   26079.97920325  .00016701  00000+0  35578-3 0  9993
2 55974  97.5121 249.8408 0004344  64.2702 295.8994 15.45000035167214
TIANMU-1 05             
1 55975U 23039C   26079.93581767  .00016518  00000+0  35772-3 0  9995
2 55975  97.5166 250.2861 0003856  88.6627 271.5063 15.44517979167189
TIANMU-1 06             
1 55976U 23039D   26079.91404172  .00016500  00000+0  35126-3 0  9992
2 55976  97.5177 250.8143 0004077  82.8772 277.2939 15.45024631167201
FENGYUN 3G              
1 56232U 23055A   26079.89850456  .00028388  00000+0  46030-3 0  9996
2 56232  49.9920  81.2571 0005510 341.9036  18.1734 15.52473547166284
METEOR-M2 3             
1 57166U 23091A   26079.91909490 -.00000003  00000+0  17598-4 0  9992
2 57166  98.6189 136.6629 0005014  73.8703 286.3027 14.24038739141958
TIANMU-1 07             
1 57399U 23101A   26079.90550137  .00006307  00000+0  22567-3 0  9994
2 57399  97.2699 132.6033 0004550 112.5640 247.6082 15.29123484148155
TIANMU-1 08             
1 57400U 23101B   26079.93946911  .00000238  00000+0  10956-4 0  9996
2 57400  97.2691 132.4162 0005899  97.3830 262.8081 15.29210168148153
TIANMU-1 09             
1 57401U 23101C   26078.61365741  .00005500  00000+0  19652-3 0  9995
2 57401  97.2650 130.5874 0005409 114.9753 245.2050 15.29221744147955
TIANMU-1 10             
1 57402U 23101D   26077.66550569  .00005873  00000+0  20876-3 0  9997
2 57402  97.2732 130.6151 0007268 109.5432 250.6594 15.29352723147804
FENGYUN 3F              
1 57490U 23111A   26079.96257347  .00000045  00000+0  41689-4 0  9990
2 57490  98.6902 151.5921 0001053  77.4656 282.6638 14.19921881136345
ARKTIKA-M 2             
1 58584U 23198A   26075.54158463  .00000175  00000+0  00000+0 0  9990
2 58584  63.2144 164.6554 6879649 267.7318  18.8593  2.00605989 16466
TIANMU-1 11             
1 58645U 23205A   26079.95379000  .00005668  00000+0  22294-3 0  9993
2 58645  97.3529 102.9219 0007707 326.2798  33.7949 15.26020355124064
TIANMU-1 12             
1 58646U 23205B   26079.98674318  .00005800  00000+0  22862-3 0  9996
2 58646  97.3517 102.7301 0005628 307.9140  52.1589 15.25950633124053
TIANMU-1 13             
1 58647U 23205C   26079.88611847  .00005735  00000+0  22576-3 0  9993
2 58647  97.3545 102.8751 0005660 283.5549  76.5059 15.26000410124033
TIANMU-1 14             
1 58648U 23205D   26079.93644211  .00005861  00000+0  23081-3 0  9993
2 58648  97.3480 102.1832 0006444 288.7781  71.2758 15.25976127124046
TIANMU-1 19             
1 58660U 23208A   26079.91389155  .00008436  00000+0  29261-3 0  9998
2 58660  97.4400 195.9148 0003764 263.7893  96.2919 15.30049157123823
TIANMU-1 20             
1 58661U 23208B   26079.88950881  .00008491  00000+0  28383-3 0  9990
2 58661  97.4340 196.4354 0005875 277.1112  82.9460 15.31237388123908
TIANMU-1 21             
1 58662U 23208C   26079.93846853  .00010750  00000+0  33643-3 0  9996
2 58662  97.4396 198.8020 0005776 269.7036  90.3544 15.33285712124035
TIANMU-1 22             
1 58663U 23208D   26079.93439713  .00008329  00000+0  29252-3 0  9990
2 58663  97.4395 195.9390 0002405 300.1710  59.9292 15.29652166123832
TIANMU-1 15             
1 58700U 24004A   26079.93413245  .00006088  00000+0  23964-3 0  9993
2 58700  97.4671 266.1590 0005839 305.8055  54.2640 15.25985535122314
TIANMU-1 16             
1 58701U 24004B   26079.91736278  .00006215  00000+0  24438-3 0  9995
2 58701  97.4613 265.4573 0004335 311.7300  48.3567 15.26021519122319
TIANMU-1 17             
1 58702U 24004C   26079.89943547  .00006009  00000+0  23615-3 0  9999
2 58702  97.4644 265.8984 0003574 314.9481  45.1467 15.26056362122300
TIANMU-1 18             
1 58703U 24004D   26079.95057912  .00006058  00000+0  23845-3 0  9998
2 58703  97.4663 266.1627 0002956 316.0207  44.0795 15.26000818122310
INSAT-3DS               
1 58990U 24033A   26079.96120086 -.00000154  00000+0  00000+0 0  9998
2 58990   0.0125 194.4717 0001978 167.4535 244.6572  1.00272251 46189
METEOR-M2 4             
1 59051U 24039A   26079.90394334  .00000012  00000+0  24936-4 0  9997
2 59051  98.6923  40.3552 0008148  68.3517 291.8528 14.22418844106717
GOES 19                 
1 60133U 24119A   26079.47650221 -.00000246  00000+0  00000+0 0  9992
2 60133   0.0426  10.5047 0000827  26.2173 237.6330  1.00270703  6079
FENGYUN 3H              
1 65815U 25219A   26079.88825253  .00000056  00000+0  46815-4 0  9997
2 65815  98.6700  22.4074 0001032  58.5339 301.5939 14.19935327 24858
